IRIDIUM 112             
1 41925U 17003J   25251.26872998  .00000337  00000+0  11318-3 0  9997
2 41925  86.4002 206.0502 0002147  85.6628 274.4813 14.34217632452864
IRIDIUM 111             
1 41926U 17003K   25251.25604537  .00000211  00000+0  68433-4 0  9991
2 41926  86.4003 206.1196 0002335  88.0308 272.1155 14.34218119452840
IRIDIUM 113             
1 42803U 17039A   25251.23600820  .00000014  00000+0 -21099-5 0  9994
2 42803  86.3910  80.0297 0001810  89.3960 270.7443 14.34217536430771
IRIDIUM 123             
1 42804U 17039B   25251.13795231  .00000299  00000+0  99766-4 0  9994
2 42804  86.3940 111.5708 0002343  92.4139 267.7325 14.34217729429527
IRIDIUM 120             
1 42805U 17039C   25251.22966299 -.00000026  00000+0 -16196-4 0  9995
2 42805  86.3899  79.8511 0002314  86.6379 273.5081 14.34216755430768
IRIDIUM 115             
1 42806U 17039D   25251.01138883  .00000120  00000+0  29721-4 0  9994
2 42806  86.4437  80.0327 0002750  98.7636 261.3877 14.43282427433569
IRIDIUM 118             
1 42807U 17039E   25251.03012623  .00000008  00000+0 -41977-5 0  9994
2 42807  86.3941 111.6150 0001755  87.2645 272.8751 14.34217405429502
IRIDIUM 117             
1 42808U 17039F   25251.18870627  .00000308  00000+0  10308-3 0  9991
2 42808  86.3939 111.5093 0002199  92.4333 267.7114 14.34220632429557
